{
    "links": {
        "self": "http://www.neowsapp.com/rest/v1/neo/3788084?api_key=iIulBulltgU6a56xZRHN4H3l9WmuAYTsLGpBGhQ2"
    },
    "id": "3788084",
    "neo_reference_id": "3788084",
    "name": "(2017 US7)",
    "designation": "2017 US7",
    "nasa_jpl_url": "http://ssd.jpl.nasa.gov/sbdb.cgi?sstr=3788084",
    "absolute_magnitude_h": 27.0,
    "estimated_diameter": {
        "kilometers": {
            "estimated_diameter_min": 0.0105816886,
            "estimated_diameter_max": 0.023661375
        },
        "meters": {
            "estimated_diameter_min": 10.5816885933,
            "estimated_diameter_max": 23.6613750114
        },
        "miles": {
            "estimated_diameter_min": 0.0065751544,
            "estimated_diameter_max": 0.0147024923
        },
        "feet": {
            "estimated_diameter_min": 34.7168272045,
            "estimated_diameter_max": 77.6291855923
        }
    },
    "is_potentially_hazardous_asteroid": false,
    "close_approach_data": [
        {
            "close_approach_date": "1997-09-25",
            "close_approach_date_full": "1997-Sep-25 03:12",
            "epoch_date_close_approach": 875157120000,
            "relative_velocity": {
                "kilometers_per_second": "20.7710339534",
                "kilometers_per_hour": "74775.7222320672",
                "miles_per_hour": "46462.7258502531"
            },
            "miss_distance": {
                "astronomical": "0.3779426821",
                "lunar": "147.0197033369",
                "kilometers": "56539420.224247127",
                "miles": "35131966.6364072726"
            },
            "orbiting_body": "Earth"
        },
        {
            "close_approach_date": "2001-09-29",
            "close_approach_date_full": "2001-Sep-29 02:38",
            "epoch_date_close_approach": 1001731080000,
            "relative_velocity": {
                "kilometers_per_second": "18.7515826838",
                "kilometers_per_hour": "67505.6976617657",
                "miles_per_hour": "41945.4153054455"
            },
            "miss_distance": {
                "astronomical": "0.3082342716",
                "lunar": "119.9031316524",
                "kilometers": "46111190.492361492",
                "miles": "28652165.1534009096"
            },
            "orbiting_body": "Earth"
        },
        {
            "close_approach_date": "2017-11-05",
            "close_approach_date_full": "2017-Nov-05 06:03",
            "epoch_date_close_approach": 1509861780000,
            "relative_velocity": {
                "kilometers_per_second": "8.7731123838",
                "kilometers_per_hour": "31583.2045817339",
                "miles_per_hour": "19624.5750913557"
            },
            "miss_distance": {
                "astronomical": "0.018120127",
                "lunar": "7.048729403",
                "kilometers": "2710732.40332949",
                "miles": "1684371.010107362"
            },
            "orbiting_body": "Earth"
        },
        {
            "close_approach_date": "2041-09-30",
            "close_approach_date_full": "2041-Sep-30 14:24",
            "epoch_date_close_approach": 2264163840000,
            "relative_velocity": {
                "kilometers_per_second": "19.9154759115",
                "kilometers_per_hour": "71695.7132815087",
                "miles_per_hour": "44548.9280665019"
            },
            "miss_distance": {
                "astronomical": "0.3991709705",
                "lunar": "155.2775075245",
                "kilometers": "59715126.952632835",
                "miles": "37105259.294629723"
            },
            "orbiting_body": "Earth"
        },
        {
            "close_approach_date": "2093-10-22",
            "close_approach_date_full": "2093-Oct-22 22:01",
            "epoch_date_close_approach": 3907087260000,
            "relative_velocity": {
                "kilometers_per_second": "11.4932885864",
                "kilometers_per_hour": "41375.8389110998",
                "miles_per_hour": "25709.3372389553"
            },
            "miss_distance": {
                "astronomical": "0.1663806922",
                "lunar": "64.7220892658",
                "kilometers": "24890197.162245614",
                "miles": "15466051.3462889132"
            },
            "orbiting_body": "Earth"
        }
    ],
    "orbital_data": {
        "orbit_id": "1",
        "orbit_determination_date": "2017-10-28 20:31:40",
        "first_observation_date": "2017-10-26",
        "last_observation_date": "2017-10-28",
        "data_arc_in_days": 2,
        "observations_used": 25,
        "orbit_uncertainty": "8",
        "minimum_orbit_intersection": ".00527727",
        "jupiter_tisserand_invariant": "3.163",
        "epoch_osculation": "2458053.5",
        "eccentricity": ".6102503279282803",
        "semi_major_axis": "2.524945687036108",
        "inclination": "2.433419403749693",
        "ascending_node_longitude": "45.04845986432821",
        "orbital_period": "1465.468500158434",
        "perihelion_distance": ".9840967535212261",
        "perihelion_argument": "17.99107562083751",
        "aphelion_distance": "4.06579462055099",
        "perihelion_time": "2458078.348001337080",
        "mean_anomaly": "353.8959585413254",
        "mean_motion": ".2456552290008826",
        "equinox": "J2000",
        "orbit_class": {
            "orbit_class_type": "APO",
            "orbit_class_description": "Near-Earth asteroid orbits which cross the Earth’s orbit similar to that of 1862 Apollo",
            "orbit_class_range": "a (semi-major axis) > 1.0 AU; q (perihelion) < 1.017 AU"
        }
    },
    "is_sentry_object": false
}